IRIDIUM 7 [-]           
1 24793U 97020B   24001.61175910  .00000384  00000+0  12792-3 0  9998
2 24793  86.3951  39.9816 0002449  91.1821 268.9656 14.35025488395498
IRIDIUM 5 [-]           
1 24795U 97020D   24001.42353574  .00003657  00000+0  36291-3 0  9999
2 24795  86.3944 327.4435 0123617 236.8681 122.0633 14.85839887406148
IRIDIUM 4 [-]           
1 24796U 97020E   24001.58628979  .00000415  00000+0  13622-3 0  9993
2 24796  86.3948  37.2239 0002298  95.8062 264.3397 14.35934860396011
IRIDIUM 914 [-]         
1 24836U 97030A   24001.57753755  .00000456  00000+0  13927-3 0  9992
2 24836  86.3924  47.3887 0002990 130.3355 229.8105 14.39766139530468
IRIDIUM 16 [-]          
1 24841U 97030F   24001.58585271  .00000466  00000+0  14879-3 0  9993
2 24841  86.4023  68.9403 0003285  55.1834 304.9673 14.37652564390454
IRIDIUM 911 [-]         
1 24842U 97030G   24001.60950994  .00000605  00000+0  16315-3 0  9997
2 24842  86.4449  68.1970 0016433  75.1726 285.1295 14.46218093398070
IRIDIUM 17 [-]          
1 24870U 97034B   24001.30987179  .00000563  00000+0  18428-3 0  9994
2 24870  86.3960  98.7141 0001436  41.2189 318.9117 14.36747032387043
IRIDIUM 920 [-]         
1 24871U 97034C   24001.61306713  .00000531  00000+0  16055-3 0  9997
2 24871  86.3967  79.0484 0012932  46.0469 314.1794 14.40470816389881
